ALOS (DAICHI)           
1 28931U 06002A   24286.12272558  .00007492  00000+0  13484-2 0  9998
2 28931  98.0494 236.8280 0002620  97.7831 262.3671 14.66866975998486
